{"type": "FeatureCollection", "features": [{"type": "Feature", "properties": {"norad_id": 22490, "name": "SCD 1", "group": "resource", "lat": -15.974182038415533, "lon": 112.47211046662137, "alt_km": 763.2314852712607, "timestamp": "2025-12-16T15:45:50.669649+00:00", "meta": {"OBJECT_NAME": "SCD 1", "OBJECT_ID": "1993-009B", "EPOCH": "2025-12-15T20:47:09.278304", "MEAN_MOTION": 14.460013, "ECCENTRICITY": 0.00419266, "INCLINATION": 24.9692, "RA_OF_ASC_NODE": 259.3886, "ARG_OF_PERICENTER": 358.1909, "MEAN_ANOMALY": 58.02, "EPHEMERIS_TYPE": 0, "CLASSIFICATION_TYPE": "U", "NORAD_CAT_ID": 22490, "ELEMENT_SET_NO": 999, "REV_AT_EPOCH": 73455, "BSTAR": 9.0830413e-05, "MEAN_MOTION_DOT": 5.17e-06, "MEAN_MOTION_DDOT": 0}, "tle": {"line1": "1 22490U 93009B   25349.86607961  .00000517  00000+0  90830-4 0  9990", "line2": "2 22490  24.9692 259.3886 0041926 358.1909  58.0200 14.46001300734557"}}, "geometry": {"type": "Point", "coordinates": [112.47211046662137, -15.974182038415533]}}, {"type": "Feature", "properties": {"norad_id": 25397, "name": "TECHSAT 1B (GO-32)", "group": "resource", "lat": 79.06413102127414, "lon": -81.07710025084066, "alt_km": 802.0147092192337, "timestamp": "2025-12-16T15:45:50.669715+00:00", "meta": {"OBJECT_NAME": "TECHSAT 1B (GO-32)", "OBJECT_ID": "1998-043D", "EPOCH": "2025-12-15T22:30:48.793536", "MEAN_MOTION": 14.24377985, "ECCENTRICITY": 0.00019811, "INCLINATION": 98.9922, "RA_OF_ASC_NODE": 333.224, "ARG_OF_PERICENTER": 52.2495, "MEAN_ANOMALY": 307.8863, "EPHEMERIS_TYPE": 0, "CLASSIFICATION_TYPE": "U", "NORAD_CAT_ID": 25397, "ELEMENT_SET_NO": 999, "REV_AT_EPOCH": 42524, "BSTAR": 5.9973632e-05, "MEAN_MOTION_DOT": 9.2e-07, "MEAN_MOTION_DDOT": 0}, "tle": {"line1": "1 25397U 98043D   25349.93806474  .00000092  00000+0  59974-4 0  9992", "line2": "2 25397  98.9922 333.2240 0001981  52.2495 307.8863 14.24377985425242"}}, "geometry": {"type": "Point", "coordinates": [-81.07710025084066, 79.06413102127414]}}, {"type": "Feature", "properties": {"norad_id": 25504, "name": "SCD 2", "group": "resource", "lat": -22.438840559842046, "lon": 0.17333621958583678, "alt_km": 745.2162042724995, "timestamp": "2025-12-16T15:45:50.669742+00:00", "meta": {"OBJECT_NAME": "SCD 2", "OBJECT_ID": "1998-060A", "EPOCH": "2025-12-15T17:43:04.045728", "MEAN_MOTION": 14.45424982, "ECCENTRICITY": 0.00167659, "INCLINATION": 24.9938, "RA_OF_ASC_NODE": 123.4064, "ARG_OF_PERICENTER": 345.4677, "MEAN_ANOMALY": 149.7184, "EPHEMERIS_TYPE": 0, "CLASSIFICATION_TYPE": "U", "NORAD_CAT_ID": 25504, "ELEMENT_SET_NO": 999, "REV_AT_EPOCH": 43375, "BSTAR": 7.0984629e-05, "MEAN_MOTION_DOT": 4.36e-06, "MEAN_MOTION_DDOT": 0}, "tle": {"line1": "1 25504U 98060A   25349.73824127  .00000436  00000+0  70985-4 0  9991", "line2": "2 25504  24.9938 123.4064 0016765 345.4677 149.7184 14.45424982433753"}}, "geometry": {"type": "Point", "coordinates": [0.17333621958583678, -22.438840559842046]}}, {"type": "Feature", "properties": {"norad_id": 25757, "name": "DLR-TUBSAT", "group": "resource", "lat": -23.755238101971283, "lon": -20.863931241822613, "alt_km": 732.5227498838576, "timestamp": "2025-12-16T15:45:50.669765+00:00", "meta": {"OBJECT_NAME": "DLR-TUBSAT", "OBJECT_ID": "1999-029B", "EPOCH": "2025-12-15T23:20:25.315008", "MEAN_MOTION": 14.52358976, "ECCENTRICITY": 0.00141051, "INCLINATION": 98.6565, "RA_OF_ASC_NODE": 334.5861, "ARG_OF_PERICENTER": 182.7828, "MEAN_ANOMALY": 177.329, "EPHEMERIS_TYPE": 0, "CLASSIFICATION_TYPE": "U", "NORAD_CAT_ID": 25757, "ELEMENT_SET_NO": 999, "REV_AT_EPOCH": 40665, "BSTAR": 4.4282593e-05, "MEAN_MOTION_DOT": 1.32e-06, "MEAN_MOTION_DDOT": 0}, "tle": {"line1": "1 25757U 99029B   25349.97251522  .00000132  00000+0  44283-4 0  9991", "line2": "2 25757  98.6565 334.5861 0014105 182.7828 177.3290 14.52358976406654"}}, "geometry": {"type": "Point", "coordinates": [-20.863931241822613, -23.755238101971283]}}, {"type": "Feature", "properties": {"norad_id": 25994, "name": "TERRA", "group": "resource", "lat": 20.330812666493593, "lon": -134.82516434706375, "alt_km": 689.5373562919367, "timestamp": "2025-12-16T15:45:50.669813+00:00", "meta": {"OBJECT_NAME": "TERRA", "OBJECT_ID": "1999-068A", "EPOCH": "2025-12-15T21:44:38.561568", "MEAN_MOTION": 14.6090545, "ECCENTRICITY": 0.00036021, "INCLINATION": 97.9746, "RA_OF_ASC_NODE": 41.4743, "ARG_OF_PERICENTER": 88.3629, "MEAN_ANOMALY": 84.4744, "EPHEMERIS_TYPE": 0, "CLASSIFICATION_TYPE": "U", "NORAD_CAT_ID": 25994, "ELEMENT_SET_NO": 999, "REV_AT_EPOCH": 38284, "BSTAR": 0.00010356677, "MEAN_MOTION_DOT": 4.62e-06, "MEAN_MOTION_DDOT": 0}, "tle": {"line1": "1 25994U 99068A   25349.90600187  .00000462  00000+0  10357-3 0  9995", "line2": "2 25994  97.9746  41.4743 0003602  88.3629  84.4744 14.60905450382843"}}, "geometry": {"type": "Point", "coordinates": [-134.82516434706375, 20.330812666493593]}}, {"type": "Feature", "properties": {"norad_id": 27004, "name": "MAROC-TUBSAT", "group": "resource", "lat": -46.945597636267635, "lon": 169.8206352666343, "alt_km": 998.8046420789105, "timestamp": "2025-12-16T15:45:50.669837+00:00", "meta": {"OBJECT_NAME": "MAROC-TUBSAT", "OBJECT_ID": "2001-056D", "EPOCH": "2025-12-15T23:04:15.856032", "MEAN_MOTION": 13.70253073, "ECCENTRICITY": 0.00191204, "INCLINATION": 99.7912, "RA_OF_ASC_NODE": 158.4626, "ARG_OF_PERICENTER": 251.5474, "MEAN_ANOMALY": 231.2153, "EPHEMERIS_TYPE": 0, "CLASSIFICATION_TYPE": "U", "NORAD_CAT_ID": 27004, "ELEMENT_SET_NO": 999, "REV_AT_EPOCH": 20109, "BSTAR": 3.5042534e-05, "MEAN_MOTION_DOT": -1.6e-07, "MEAN_MOTION_DDOT": 0}, "tle": {"line1": "1 27004U 01056D   25349.96129463 -.00000016  00000+0  35043-4 0  9994", "line2": "2 27004  99.7912 158.4626 0019120 251.5474 231.2153 13.70253073201095"}}, "geometry": {"type": "Point", "coordinates": [169.8206352666343, -46.945597636267635]}}, {"type": "Feature", "properties": {"norad_id": 27424, "name": "AQUA", "group": "resource", "lat": 46.59178362114651, "lon": -57.391986512779134, "alt_km": 682.8504089607077, "timestamp": "2025-12-16T15:45:50.669859+00:00", "meta": {"OBJECT_NAME": "AQUA", "OBJECT_ID": "2002-022A", "EPOCH": "2025-12-15T23:18:20.304576", "MEAN_MOTION": 14.61816755, "ECCENTRICITY": 0.00012093, "INCLINATION": 98.404, "RA_OF_ASC_NODE": 310.9026, "ARG_OF_PERICENTER": 114.3239, "MEAN_ANOMALY": 286.2663, "EPHEMERIS_TYPE": 0, "CLASSIFICATION_TYPE": "U", "NORAD_CAT_ID": 27424, "ELEMENT_SET_NO": 999, "REV_AT_EPOCH": 25650, "BSTAR": 0.00021483809, "MEAN_MOTION_DOT": 1.024e-05, "MEAN_MOTION_DDOT": 0}, "tle": {"line1": "1 27424U 02022A   25349.97106834  .00001024  00000+0  21484-3 0  9994", "line2": "2 27424  98.4040 310.9026 0001209 114.3239 286.2663 14.61816755256507"}}, "geometry": {"type": "Point", "coordinates": [-57.391986512779134, 46.59178362114651]}}, {"type": "Feature", "properties": {"norad_id": 28051, "name": "IRS-P6 (RESOURCESAT-1)", "group": "resource", "lat": -81.77654900913515, "lon": 120.96468452404893, "alt_km": 787.3691126546355, "timestamp": "2025-12-16T15:45:50.669879+00:00", "meta": {"OBJECT_NAME": "IRS-P6 (RESOURCESAT-1)", "OBJECT_ID": "2003-046A", "EPOCH": "2025-12-16T00:00:04.159296", "MEAN_MOTION": 14.36076201, "ECCENTRICITY": 0.006432, "INCLINATION": 98.2182, "RA_OF_ASC_NODE": 30.2561, "ARG_OF_PERICENTER": 170.9074, "MEAN_ANOMALY": 304.8131, "EPHEMERIS_TYPE": 0, "CLASSIFICATION_TYPE": "U", "NORAD_CAT_ID": 28051, "ELEMENT_SET_NO": 999, "REV_AT_EPOCH": 15423, "BSTAR": 4.3610576e-05, "MEAN_MOTION_DOT": 8.9e-07, "MEAN_MOTION_DDOT": 0}, "tle": {"line1": "1 28051U 03046A   25350.00004814  .00000089  00000+0  43611-4 0  9996", "line2": "2 28051  98.2182  30.2561 0064320 170.9074 304.8131 14.36076201154233"}}, "geometry": {"type": "Point", "coordinates": [120.96468452404893, -81.77654900913515]}}, {"type": "Feature", "properties": {"norad_id": 28220, "name": "SHIYAN-1 (SY-1)", "group": "resource", "lat": -0.06015779296139893, "lon": 52.435092894055884, "alt_km": 481.71769589309315, "timestamp": "2025-12-16T15:45:50.669901+00:00", "meta": {"OBJECT_NAME": "SHIYAN-1 (SY-1)", "OBJECT_ID": "2004-012A", "EPOCH": "2025-12-15T22:28:42.900096", "MEAN_MOTION": 15.28232207, "ECCENTRICITY": 0.00054522, "INCLINATION": 97.894, "RA_OF_ASC_NODE": 51.6639, "ARG_OF_PERICENTER": 313.0552, "MEAN_ANOMALY": 47.0229, "EPHEMERIS_TYPE": 0, "CLASSIFICATION_TYPE": "U", "NORAD_CAT_ID": 28220, "ELEMENT_SET_NO": 999, "REV_AT_EPOCH": 18305, "BSTAR": 0.00037983459, "MEAN_MOTION_DOT": 0.00010375, "MEAN_MOTION_DDOT": 0}, "tle": {"line1": "1 28220U 04012A   25349.93660764  .00010375  00000+0  37983-3 0  9993", "line2": "2 28220  97.8940  51.6639 0005452 313.0552  47.0229 15.28232207183051"}}, "geometry": {"type": "Point", "coordinates": [52.435092894055884, -0.06015779296139893]}}, {"type": "Feature", "properties": {"norad_id": 28376, "name": "AURA", "group": "resource", "lat": 13.268073378573934, "lon": 122.87869317750334, "alt_km": 690.9603380447397, "timestamp": "2025-12-16T15:45:50.669922+00:00", "meta": {"OBJECT_NAME": "AURA", "OBJECT_ID": "2004-026A", "EPOCH": "2025-12-15T20:55:24.865248", "MEAN_MOTION": 14.60954081, "ECCENTRICITY": 0.00012911, "INCLINATION": 98.3187, "RA_OF_ASC_NODE": 300.1129, "ARG_OF_PERICENTER": 93.5806, "MEAN_ANOMALY": 266.5542, "EPHEMERIS_TYPE": 0, "CLASSIFICATION_TYPE": "U", "NORAD_CAT_ID": 28376, "ELEMENT_SET_NO": 999, "REV_AT_EPOCH": 13944, "BSTAR": 0.00021884025, "MEAN_MOTION_DOT": 1.024e-05, "MEAN_MOTION_DDOT": 0}, "tle": {"line1": "1 28376U 04026A   25349.87181557  .00001024  00000+0  21884-3 0  9995", "line2": "2 28376  98.3187 300.1129 0001291  93.5806 266.5542 14.60954081139443"}}, "geometry": {"type": "Point", "coordinates": [122.87869317750334, 13.268073378573934]}}]}